{
  "schemaVersion": 2,
  "epoch": {
    "name": "J2026",
    "jdTdb": 2461041.5
  },
  "frame": "heliocentric-ecliptic-j2000",
  "bodies": [
    {
      "id": "miranda",
      "name": "Miranda",
      "kind": "moon",
      "horizonsId": 705,
      "parentId": "uranus",
      "muKm3S2": 4.3,
      "meanRadiusKm": 235.8,
      "siderealRotationPeriodSec": 122124.58559999999,
      "axialTiltRad": 0.0,
      "geometricAlbedo": 0.32,
      "soiRadiusKm": 458.9199809547859,
      "elements": {
        "semiMajorAxisKm": 129879.17506523119,
        "eccentricity": 0.001330623238450948,
        "inclinationRad": 1.731123617580335,
        "longitudeAscendingNodeRad": 2.8522692285905613,
        "argumentPeriapsisRad": 0.9749247510114721,
        "meanAnomalyRad": 1.6848544617365384
      },
      "surface": {
        "kind": "solid",
        "atmosphereTopKm": null
      },
      "visual": {
        "albedoColor": "#a9a6a0",
        "assetRef": null,
        "proceduralSeed": 705,
        "polarRadiusRatio": 1.0
      }
    },
    {
      "id": "ariel",
      "name": "Ariel",
      "kind": "moon",
      "horizonsId": 701,
      "parentId": "uranus",
      "muKm3S2": 83.5,
      "meanRadiusKm": 578.9,
      "siderealRotationPeriodSec": 217760.74560000002,
      "axialTiltRad": 0.0,
      "geometricAlbedo": 0.39,
      "soiRadiusKm": 2209.9533049752235,
      "elements": {
        "semiMajorAxisKm": 190940.67084097012,
        "eccentricity": 0.0006105421542073853,
        "inclinationRad": 1.7054523964408184,
        "longitudeAscendingNodeRad": 2.92629820559768,
        "argumentPeriapsisRad": 3.9835268429775987,
        "meanAnomalyRad": 5.037026440380873
      },
      "surface": {
        "kind": "solid",
        "atmosphereTopKm": null
      },
      "visual": {
        "albedoColor": "#b8b6ae",
        "assetRef": null,
        "proceduralSeed": 701,
        "polarRadiusRatio": 1.0
      }
    },
    {
      "id": "umbriel",
      "name": "Umbriel",
      "kind": "moon",
      "horizonsId": 702,
      "parentId": "uranus",
      "muKm3S2": 85.1,
      "meanRadiusKm": 584.7,
      "siderealRotationPeriodSec": 358056.8928,
      "axialTiltRad": 0.0,
      "geometricAlbedo": 0.21,
      "soiRadiusKm": 3102.2252710885073,
      "elements": {
        "semiMajorAxisKm": 266006.00705946307,
        "eccentricity": 0.00415190055130992,
        "inclinationRad": 1.705386895201632,
        "longitudeAscendingNodeRad": 2.927339002836232,
        "argumentPeriapsisRad": 0.9639920787526773,
        "meanAnomalyRad": 0.3705766161201218
      },
      "surface": {
        "kind": "solid",
        "atmosphereTopKm": null
      },
      "visual": {
        "albedoColor": "#77746f",
        "assetRef": null,
        "proceduralSeed": 702,
        "polarRadiusRatio": 1.0
      }
    },
    {
      "id": "titania",
      "name": "Titania",
      "kind": "moon",
      "horizonsId": 703,
      "parentId": "uranus",
      "muKm3S2": 226.9,
      "meanRadiusKm": 788.9,
      "siderealRotationPeriodSec": 752187.3407999999,
      "axialTiltRad": 0.0,
      "geometricAlbedo": 0.27,
      "soiRadiusKm": 7531.764209055269,
      "elements": {
        "semiMajorAxisKm": 436267.4927458272,
        "eccentricity": 0.002459184123346811,
        "inclinationRad": 1.7062915578894173,
        "longitudeAscendingNodeRad": 2.9259092110732503,
        "argumentPeriapsisRad": 4.570867757618491,
        "meanAnomalyRad": 5.380924511767465
      },
      "surface": {
        "kind": "solid",
        "atmosphereTopKm": null
      },
      "visual": {
        "albedoColor": "#a5a29b",
        "assetRef": null,
        "proceduralSeed": 703,
        "polarRadiusRatio": 1.0
      }
    },
    {
      "id": "oberon",
      "name": "Oberon",
      "kind": "moon",
      "horizonsId": 704,
      "parentId": "uranus",
      "muKm3S2": 205.3,
      "meanRadiusKm": 761.4,
      "siderealRotationPeriodSec": 1163223.8496,
      "axialTiltRad": 0.0,
      "geometricAlbedo": 0.23,
      "soiRadiusKm": 9680.246607461364,
      "elements": {
        "semiMajorAxisKm": 583607.3843453096,
        "eccentricity": 0.002100459071123287,
        "inclinationRad": 1.7087749654560047,
        "longitudeAscendingNodeRad": 2.927087436418143,
        "argumentPeriapsisRad": 2.733468318160932,
        "meanAnomalyRad": 5.626689221343709
      },
      "surface": {
        "kind": "solid",
        "atmosphereTopKm": null
      },
      "visual": {
        "albedoColor": "#8e8981",
        "assetRef": null,
        "proceduralSeed": 704,
        "polarRadiusRatio": 1.0
      }
    },
    {
      "id": "neptune",
      "name": "Neptune",
      "kind": "planet",
      "horizonsId": 899,
      "parentId": "sun",
      "muKm3S2": 6835099.5,
      "meanRadiusKm": 24622.0,
      "siderealRotationPeriodSec": 57996.0,
      "axialTiltRad": 0.4942772441647941,
      "geometricAlbedo": 0.442,
      "soiRadiusKm": 86761220.6487091,
      "elements": {
        "semiMajorAxisKm": 4503937660.170686,
        "eccentricity": 0.01096394748823198,
        "inclinationRad": 0.030959693336402628,
        "longitudeAscendingNodeRad": 2.3024992091900165,
        "argumentPeriapsisRad": 4.838950015404036,
        "meanAnomalyRad": 5.458777584094758
      },
      "surface": {
        "kind": "gas",
        "atmosphereTopKm": null
      },
      "visual": {
        "albedoColor": "#4169a9",
        "assetRef": null,
        "proceduralSeed": 899,
        "polarRadiusRatio": 1.0
      }
    },
    {
      "id": "triton",
      "name": "Triton",
      "kind": "moon",
      "horizonsId": 801,
      "parentId": "neptune",
      "muKm3S2": 1428.49546,
      "meanRadiusKm": 1352.6,
      "siderealRotationPeriodSec": -507760.18559999997,
      "axialTiltRad": 0.0,
      "geometricAlbedo": 0.76,
      "soiRadiusKm": 11967.2923029891,
      "elements": {
        "semiMajorAxisKm": 354766.24358935736,
        "eccentricity": 0.0001383435154514518,
        "inclinationRad": 2.254060070895076,
        "longitudeAscendingNodeRad": 3.886185768086066,
        "argumentPeriapsisRad": 1.7832124363150335,
        "meanAnomalyRad": 5.366466330300442
      },
      "surface": {
        "kind": "solid",
        "atmosphereTopKm": null
      },
      "visual": {
        "albedoColor": "#b7aca3",
        "assetRef": null,
        "proceduralSeed": 801,
        "polarRadiusRatio": 1.0
      }
    },
    {
      "id": "pluto",
      "name": "Pluto",
      "kind": "dwarf",
      "horizonsId": 999,
      "parentId": "sun",
      "muKm3S2": 869.3,
      "meanRadiusKm": 1188.3,
      "siderealRotationPeriodSec": -551854.08,
      "axialTiltRad": 2.138551932468652,
      "geometricAlbedo": 0.3,
      "soiRadiusKm": 3157441.2463096813,
      "elements": {
        "semiMajorAxisKm": 5926960866.430533,
        "eccentricity": 0.2474542943747517,
        "inclinationRad": 0.2972276320505494,
        "longitudeAscendingNodeRad": 1.9236919387277756,
        "argumentPeriapsisRad": 2.0065725419268077,
        "meanAnomalyRad": 0.904694321662924
      },
      "surface": {
        "kind": "solid",
        "atmosphereTopKm": null
      },
      "visual": {
        "albedoColor": "#b7a28c",
        "assetRef": null,
        "proceduralSeed": 999,
        "polarRadiusRatio": 1.0
      }
    },
    {
      "id": "charon",
      "name": "Charon",
      "kind": "moon",
      "horizonsId": 901,
      "parentId": "pluto",
      "muKm3S2": 106.1,
      "meanRadiusKm": 606.0,
      "siderealRotationPeriodSec": 551854.08,
      "axialTiltRad": 0.0,
      "geometricAlbedo": 0.38,
      "soiRadiusKm": 8448.515655230454,
      "elements": {
        "semiMajorAxisKm": 19595.760888039018,
        "eccentricity": 0.0001601818057312582,
        "inclinationRad": 1.9702638963176873,
        "longitudeAscendingNodeRad": 3.9687567546235067,
        "argumentPeriapsisRad": 3.010132788775513,
        "meanAnomalyRad": 1.318677682318003
      },
      "surface": {
        "kind": "solid",
        "atmosphereTopKm": null
      },
      "visual": {
        "albedoColor": "#8f8b87",
        "assetRef": null,
        "proceduralSeed": 901,
        "polarRadiusRatio": 1.0
      }
    },
    {
      "id": "ceres",
      "name": "Ceres",
      "kind": "dwarf",
      "horizonsId": 1,
      "parentId": "sun",
      "muKm3S2": 62.6284,
      "meanRadiusKm": 469.7,
      "siderealRotationPeriodSec": 32667.012000000002,
      "axialTiltRad": 0.06981317007977318,
      "geometricAlbedo": 0.09,
      "soiRadiusKm": 76957.67705379991,
      "elements": {
        "semiMajorAxisKm": 413721487.1842389,
        "eccentricity": 0.07960223186188,
        "inclinationRad": 0.18479452665171978,
        "longitudeAscendingNodeRad": 1.4006111685051559,
        "argumentPeriapsisRad": 1.2794455173294124,
        "meanAnomalyRad": 4.194396657781543
      },
      "surface": {
        "kind": "solid",
        "atmosphereTopKm": null
      },
      "visual": {
        "albedoColor": "#77736d",
        "assetRef": null,
        "proceduralSeed": 1,
        "polarRadiusRatio": 1.0
      }
    },
    {
      "id": "eris",
      "name": "Eris",
      "kind": "dwarf",
      "horizonsId": 136199,
      "parentId": "sun",
      "muKm3S2": 1107.9338,
      "meanRadiusKm": 1200.0,
      "siderealRotationPeriodSec": 93225.59999999999,
      "axialTiltRad": 0.0,
      "geometricAlbedo": 0.84,
      "soiRadiusKm": 5969978.236361165,
      "elements": {
        "semiMajorAxisKm": 10170255812.90302,
        "eccentricity": 0.4372260575656668,
        "inclinationRad": 0.7658517857656302,
        "longitudeAscendingNodeRad": 0.6287157944647482,
        "argumentPeriapsisRad": 2.6309652878864833,
        "meanAnomalyRad": 3.6917180558003486
      },
      "surface": {
        "kind": "solid",
        "atmosphereTopKm": null
      },
      "visual": {
        "albedoColor": "#d8d4cd",
        "assetRef": null,
        "proceduralSeed": 136199,
        "polarRadiusRatio": 1.0
      }
    }
  ]
}
